BUFENG 1A               
1 44310U 19032A   26068.91906837  .00016103  00000+0  62414-3 0  9992
2 44310  44.9758 238.6688 0005472  55.4463 304.6935 15.26012088372013
STARLINK-31502          
1 59301U 24056F   26067.81125089 -.00005629  00000+0 -19549-3 0  9994
2 59301  43.0012 228.4246 0001841 269.2505  90.8136 15.27529889111108
